OPS 7218 (TRANSIT 16)   
1 02807U 67048A   24196.54067796  .00000166  00000+0  24323-3 0  9997
2 02807  89.6718  10.8955 0020778 163.6015 258.5949 13.50529885813080
OPS 4947 (TRANSIT 17)   
1 02965U 67092A   24196.60468675  .00000160  00000+0  22168-3 0  9998
2 02965  89.2295  64.2366 0046108 296.1882 122.8573 13.53248249801166
OPS 7034 (TRANSIT 18)   
1 03133U 68012A   24196.51183509  .00000174  00000+0  24996-3 0  9995
2 03133  90.0220 272.5009 0072968 224.6688 148.9767 13.51370453499464
NNSS 19 (TRANSIT 19)    
1 04507U 70067A   24196.56027367  .00000144  00000+0  19075-3 0  9997
2 04507  89.9675 235.1914 0171735 349.3634  10.3902 13.51080858652516
NNSS 20 (TRANSIT 20)    
1 06909U 73081A   24196.57762514  .00000320  00000+0  31792-3 0  9991
2 06909  89.8358 263.5342 0155574 184.9354 175.0285 13.71061630732876
TRANSAT                 
1 10457U 77106A   24196.52274652  .00000098  00000+0  14098-3 0  9994
2 10457  89.6536  96.9847 0023385 240.9026 294.0866 13.48819051297848
NOVA 1                  
1 12458U 81044A   24196.52378975  .00000075  00000+0  15691-3 0  9991
2 12458  89.8660  98.5694 0016214  85.9223  87.8989 13.23178255 83594
NOVA 3                  
1 15362U 84110A   24196.58755263  .00000057  00000+0  11507-3 0  9992
2 15362  90.1157  74.7385 0030748 315.0467 105.7975 13.22948818918743
OSCAR 30                
1 15935U 85066A   24196.44861096  .00000139  00000+0  23192-3 0  9990
2 15935  90.1793  91.2045 0169963 100.1585  72.0809 13.35926112895594
OSCAR 24                
1 15936U 85066B   24196.58150934  .00000136  00000+0  22705-3 0  9994
2 15936  90.1841  83.1882 0170714 105.9270 320.6143 13.35785679897527
POLAR BEAR              
1 17070U 86088A   24196.59535753  .00000149  00000+0  14375-3 0  9995
2 17070  89.6016 204.6000 0037448 235.8561 246.5314 13.75064984888854
OSCAR 27                
1 18361U 87080A   24196.56381250  .00000112  00000+0  17403-3 0  9995
2 18361  90.3595  60.3802 0102133 263.0164  95.9359 13.44743707806197
OSCAR 29                
1 18362U 87080B   24196.62372616  .00000095  00000+0  14633-3 0  9991
2 18362  90.3608  60.7922 0103911 285.1302 127.7823 13.44306903805758
OSCAR 23                
1 19070U 88033A   24196.53473448  .00000145  00000+0  27391-3 0  9993
2 19070  90.3143   0.4397 0189836 175.4352 252.5683 13.27662078754036
OSCAR 32                
1 19071U 88033B   24196.50044684  .00000153  00000+0  28995-3 0  9997
2 19071  90.3147   0.5464 0188656 162.8511 257.8975 13.27835718754140
NOVA 2                  
1 19223U 88052A   24196.62450976  .00000073  00000+0  15369-3 0  9997
2 19223  89.9819  79.1896 0030764 359.4557  57.2228 13.22847952741248
OSCAR 25                
1 19419U 88074A   24196.55965369  .00000135  00000+0  21870-3 0  9990
2 19419  90.0179  18.7984 0094231 279.1428 142.2905 13.42466444757416
OSCAR 31                
1 19420U 88074B   24196.57488206  .00000090  00000+0  14139-3 0  9994
2 19420  90.0193  19.0688 0092454 273.1328 157.5024 13.42454428757259
